[{"OBJECT_NAME":"ATLAS CENTAUR 2","OBJECT_ID":"1963-047A","EPOCH":"2026-04-19T19:56:40.192800","MEAN_MOTION":14.12261395,"ECCENTRICITY":0.0546727,"INCLINATION":30.3533,"RA_OF_ASC_NODE":325.6928,"ARG_OF_PERICENTER":82.9321,"MEAN_ANOMALY":283.3103,"EPHEMERIS_TYPE":0,"CLASSIFICATION_TYPE":"U","NORAD_CAT_ID":694,"ELEMENT_SET_NO":999,"REV_AT_EPOCH":13744,"BSTAR":0.00032125,"MEAN_MOTION_DOT":2.704e-5,"MEAN_MOTION_DDOT":0},{"OBJECT_NAME":"THOR AGENA D R/B","OBJECT_ID":"1964-002A","EPOCH":"2026-04-19T13:10:08.284800","MEAN_MOTION":14.34040473,"ECCENTRICITY":0.0033645,"INCLINATION":99.1196,"RA_OF_ASC_NODE":125.1102,"ARG_OF_PERICENTER":138.3034,"MEAN_ANOMALY":222.0722,"EPHEMERIS_TYPE":0,"CLASSIFICATION_TYPE":"U","NORAD_CAT_ID":733,"ELEMENT_SET_NO":999,"REV_AT_EPOCH":24415,"BSTAR":5.6236e-5,"MEAN_MOTION_DOT":1.09e-6,"MEAN_MOTION_DDOT":0},{"OBJECT_NAME":"SL-3 R/B","OBJECT_ID":"1964-053B","EPOCH":"2026-04-19T13:07:12.789984","MEAN_MOTION":14.61395927,"ECCENTRICITY":0.00809795,"INCLINATION":65.0768,"RA_OF_ASC_NODE":211.4469,"ARG_OF_PERICENTER":279.4056,"MEAN_ANOMALY":79.7896,"EPHEMERIS_TYPE":0,"CLASSIFICATION_TYPE":"U","NORAD_CAT_ID":877,"ELEMENT_SET_NO":999,"REV_AT_EPOCH":27276,"BSTAR":4.5231486e-5,"MEAN_MOTION_DOT":1.08e-6,"MEAN_MOTION_DDOT":0},{"OBJECT_NAME":"SL-8 R/B","OBJECT_ID":"1967-045B","EPOCH":"2026-04-19T19:39:26.021088","MEAN_MOTION":14.45651639,"ECCENTRICITY":0.0065193,"INCLINATION":74.0096,"RA_OF_ASC_NODE":271.2715,"ARG_OF_PERICENTER":268.7412,"MEAN_ANOMALY":90.6277,"EPHEMERIS_TYPE":0,"CLASSIFICATION_TYPE":"U","NORAD_CAT_ID":2802,"ELEMENT_SET_NO":999,"REV_AT_EPOCH":9496,"BSTAR":5.8527e-5,"MEAN_MOTION_DOT":1.83e-6,"MEAN_MOTION_DDOT":0},{"OBJECT_NAME":"SL-8 R/B","OBJECT_ID":"1968-040B","EPOCH":"2026-04-19T07:14:29.925600","MEAN_MOTION":15.03527398,"ECCENTRICITY":0.0023705,"INCLINATION":74.0302,"RA_OF_ASC_NODE":230.6865,"ARG_OF_PERICENTER":37.8058,"MEAN_ANOMALY":322.479,"EPHEMERIS_TYPE":0,"CLASSIFICATION_TYPE":"U","NORAD_CAT_ID":3230,"ELEMENT_SET_NO":999,"REV_AT_EPOCH":9611,"BSTAR":0.0001481,"MEAN_MOTION_DOT":1.99e-5,"MEAN_MOTION_DDOT":0},{"OBJECT_NAME":"OAO 2","OBJECT_ID":"1968-110A","EPOCH":"2026-04-19T11:39:00.299232","MEAN_MOTION":14.4732889,"ECCENTRICITY":0.00055246,"INCLINATION":34.9943,"RA_OF_ASC_NODE":37.4418,"ARG_OF_PERICENTER":171.7959,"MEAN_ANOMALY":188.2823,"EPHEMERIS_TYPE":0,"CLASSIFICATION_TYPE":"U","NORAD_CAT_ID":3597,"ELEMENT_SET_NO":999,"REV_AT_EPOCH":2501,"BSTAR":4.137083e-5,"MEAN_MOTION_DOT":1.35e-6,"MEAN_MOTION_DDOT":0},{"OBJECT_NAME":"ISIS 1","OBJECT_ID":"1969-009A","EPOCH":"2026-04-19T03:55:02.283168","MEAN_MOTION":11.30423239,"ECCENTRICITY":0.17073093,"INCLINATION":88.4462,"RA_OF_ASC_NODE":150.8847,"ARG_OF_PERICENTER":7.5025,"MEAN_ANOMALY":354.839,"EPHEMERIS_TYPE":0,"CLASSIFICATION_TYPE":"U","NORAD_CAT_ID":3669,"ELEMENT_SET_NO":999,"REV_AT_EPOCH":35310,"BSTAR":4.7454253e-5,"MEAN_MOTION_DOT":7.6e-7,"MEAN_MOTION_DDOT":0},{"OBJECT_NAME":"SERT 2","OBJECT_ID":"1970-009A","EPOCH":"2026-04-19T14:09:02.981376","MEAN_MOTION":13.58734991,"ECCENTRICITY":0.0005764,"INCLINATION":99.281,"RA_OF_ASC_NODE":50.4573,"ARG_OF_PERICENTER":64.6437,"MEAN_ANOMALY":108.2604,"EPHEMERIS_TYPE":0,"CLASSIFICATION_TYPE":"U","NORAD_CAT_ID":4327,"ELEMENT_SET_NO":999,"REV_AT_EPOCH":78544,"BSTAR":0.00011621,"MEAN_MOTION_DOT":4.4e-7,"MEAN_MOTION_DDOT":0},{"OBJECT_NAME":"SL-3 R/B","OBJECT_ID":"1971-028B","EPOCH":"2026-04-19T19:43:00.594624","MEAN_MOTION":15.64703212,"ECCENTRICITY":0.0016589,"INCLINATION":81.237,"RA_OF_ASC_NODE":1.0941,"ARG_OF_PERICENTER":130.1744,"MEAN_ANOMALY":230.0966,"EPHEMERIS_TYPE":0,"CLASSIFICATION_TYPE":"U","NORAD_CAT_ID":5118,"ELEMENT_SET_NO":999,"REV_AT_EPOCH":99509,"BSTAR":0.00038581,"MEAN_MOTION_DOT":0.00037788,"MEAN_MOTION_DDOT":0},{"OBJECT_NAME":"ASTEX 1","OBJECT_ID":"1971-089A","EPOCH":"2026-04-19T20:39:42.489216","MEAN_MOTION":14.50808273,"ECCENTRICITY":0.0013629,"INCLINATION":92.7057,"RA_OF_ASC_NODE":165.0588,"ARG_OF_PERICENTER":311.1296,"MEAN_ANOMALY":48.8733,"EPHEMERIS_TYPE":0,"CLASSIFICATION_TYPE":"U","NORAD_CAT_ID":5560,"ELEMENT_SET_NO":999,"REV_AT_EPOCH":86827,"BSTAR":8.386e-5,"MEAN_MOTION_DOT":3.29e-6,"MEAN_MOTION_DDOT":0},{"OBJECT_NAME":"SL-8 R/B","OBJECT_ID":"1971-119B","EPOCH":"2026-04-19T16:42:44.117280","MEAN_MOTION":14.38549223,"ECCENTRICITY":0.0545534,"INCLINATION":73.8841,"RA_OF_ASC_NODE":99.0225,"ARG_OF_PERICENTER":56.9743,"MEAN_ANOMALY":308.2606,"EPHEMERIS_TYPE":0,"CLASSIFICATION_TYPE":"U","NORAD_CAT_ID":5730,"ELEMENT_SET_NO":999,"REV_AT_EPOCH":66138,"BSTAR":0.0004561,"MEAN_MOTION_DOT":8.758e-5,"MEAN_MOTION_DDOT":0},{"OBJECT_NAME":"OAO 3 (COPERNICUS)","OBJECT_ID":"1972-065A","EPOCH":"2026-04-19T13:58:48.588384","MEAN_MOTION":14.60027681,"ECCENTRICITY":0.0006253,"INCLINATION":35.006,"RA_OF_ASC_NODE":64.3223,"ARG_OF_PERICENTER":140.1418,"MEAN_ANOMALY":26.4202,"EPHEMERIS_TYPE":0,"CLASSIFICATION_TYPE":"U","NORAD_CAT_ID":6153,"ELEMENT_SET_NO":999,"REV_AT_EPOCH":85217,"BSTAR":4.4188e-5,"MEAN_MOTION_DOT":1.94e-6,"MEAN_MOTION_DDOT":0},{"OBJECT_NAME":"ATLAS CENTAUR R/B","OBJECT_ID":"1972-065B","EPOCH":"2026-04-19T13:40:05.263104","MEAN_MOTION":14.77795893,"ECCENTRICITY":0.0033516,"INCLINATION":35.0018,"RA_OF_ASC_NODE":66.1562,"ARG_OF_PERICENTER":353.1176,"MEAN_ANOMALY":6.9061,"EPHEMERIS_TYPE":0,"CLASSIFICATION_TYPE":"U","NORAD_CAT_ID":6155,"ELEMENT_SET_NO":999,"REV_AT_EPOCH":84731,"BSTAR":0.00011944,"MEAN_MOTION_DOT":8.55e-6,"MEAN_MOTION_DDOT":0},{"OBJECT_NAME":"SL-8 R/B","OBJECT_ID":"1975-112B","EPOCH":"2026-04-19T13:01:29.311104","MEAN_MOTION":14.38223747,"ECCENTRICITY":0.00151998,"INCLINATION":74.0596,"RA_OF_ASC_NODE":303.7617,"ARG_OF_PERICENTER":21.5421,"MEAN_ANOMALY":338.6369,"EPHEMERIS_TYPE":0,"CLASSIFICATION_TYPE":"U","NORAD_CAT_ID":8459,"ELEMENT_SET_NO":999,"REV_AT_EPOCH":63774,"BSTAR":2.1885799e-5,"MEAN_MOTION_DOT":4.0e-7,"MEAN_MOTION_DDOT":0},{"OBJECT_NAME":"SL-3 R/B","OBJECT_ID":"1977-057B","EPOCH":"2026-04-19T19:36:43.824096","MEAN_MOTION":15.46601437,"ECCENTRICITY":0.0008272,"INCLINATION":97.5814,"RA_OF_ASC_NODE":283.5971,"ARG_OF_PERICENTER":129.97,"MEAN_ANOMALY":230.2277,"EPHEMERIS_TYPE":0,"CLASSIFICATION_TYPE":"U","NORAD_CAT_ID":10114,"ELEMENT_SET_NO":999,"REV_AT_EPOCH":67468,"BSTAR":0.00021303,"MEAN_MOTION_DOT":0.00010526,"MEAN_MOTION_DDOT":0},{"OBJECT_NAME":"SEASAT 1","OBJECT_ID":"1978-064A","EPOCH":"2026-04-19T18:59:39.022368","MEAN_MOTION":14.46194923,"ECCENTRICITY":0.0002802,"INCLINATION":108.0076,"RA_OF_ASC_NODE":211.7362,"ARG_OF_PERICENTER":264.0416,"MEAN_ANOMALY":96.041,"EPHEMERIS_TYPE":0,"CLASSIFICATION_TYPE":"U","NORAD_CAT_ID":10967,"ELEMENT_SET_NO":999,"REV_AT_EPOCH":51245,"BSTAR":9.2884e-5,"MEAN_MOTION_DOT":1.95e-6,"MEAN_MOTION_DDOT":0},{"OBJECT_NAME":"SL-14 R/B","OBJECT_ID":"1979-011B","EPOCH":"2026-04-19T19:51:52.896384","MEAN_MOTION":14.91960892,"ECCENTRICITY":0.0014381,"INCLINATION":82.5245,"RA_OF_ASC_NODE":57.5264,"ARG_OF_PERICENTER":281.5178,"MEAN_ANOMALY":78.4427,"EPHEMERIS_TYPE":0,"CLASSIFICATION_TYPE":"U","NORAD_CAT_ID":11267,"ELEMENT_SET_NO":999,"REV_AT_EPOCH":53491,"BSTAR":4.1543e-5,"MEAN_MOTION_DOT":4.46e-6,"MEAN_MOTION_DDOT":0}]
