ATLAS CENTAUR 2
1 00694U 63047A   26109.83102075  .00002704  00000+0  32125-3 0  9991
2 00694  30.3533 325.6928 0546727  82.9321 283.3103 14.12261395137442
THOR AGENA D R/B
1 00733U 64002A   26109.54870700  .00000109  00000+0  56236-4 0  9999
2 00733  99.1196 125.1102 0033645 138.3034 222.0722 14.34040473244158
SL-3 R/B
1 00877U 64053B   26109.54667581  .00000108  00000+0  45231-4 0  9997
2 00877  65.0768 211.4469 0080979 279.4056  79.7896 14.61395927272766
SL-8 R/B
1 02802U 67045B   26109.81905117  .00000183  00000+0  58527-4 0  9996
2 02802  74.0096 271.2715 0065193 268.7412  90.6277 14.45651639 94962
SL-8 R/B
1 03230U 68040B   26109.30173525  .00001990  00000+0  14810-3 0  9995
2 03230  74.0302 230.6865 0023705  37.8058 322.4790 15.03527398 96111
OAO 2
1 03597U 68110A   26109.48542013  .00000135  00000+0  41371-4 0  9993
2 03597  34.9943  37.4418 0005524 171.7959 188.2823 14.47328890 25016
ISIS 1
1 03669U 69009A   26109.16322087  .00000076  00000+0  47454-4 0  9995
2 03669  88.4462 150.8847 1707309   7.5025 354.8390 11.30423239353109
SERT 2
1 04327U 70009A   26109.58961784  .00000044  00000+0  11621-3 0  9999
2 04327  99.2810  50.4573 0005764  64.6437 108.2604 13.58734991785442
SL-3 R/B
1 05118U 71028B   26109.82153466  .00037788  00000+0  38581-3 0  9996
2 05118  81.2370   1.0941 0016589 130.1744 230.0966 15.64703212995091
ASTEX 1
1 05560U 71089A   26109.86090844  .00000329  00000+0  83860-4 0  9990
2 05560  92.7057 165.0588 0013629 311.1296  48.8733 14.50808273868277
SL-8 R/B
1 05730U 71119B   26109.69634395  .00008758  00000+0  45610-3 0  9993
2 05730  73.8841  99.0225 0545534  56.9743 308.2606 14.38549223661385
OAO 3 (COPERNICUS)
1 06153U 72065A   26109.58250681  .00000194  00000+0  44188-4 0  9990
2 06153  35.0060  64.3223 0006253 140.1418  26.4202 14.60027681852170
ATLAS CENTAUR R/B
1 06155U 72065B   26109.56950536  .00000855  00000+0  11944-3 0  9993
2 06155  35.0018  66.1562 0033516 353.1176   6.9061 14.77795893847311
SL-8 R/B
1 08459U 75112B   26109.54270036  .00000040  00000+0  21886-4 0  9999
2 08459  74.0596 303.7617 0015199  21.5421 338.6369 14.38223747637742
SL-3 R/B
1 10114U 77057B   26109.81717389  .00010526  00000+0  21303-3 0  9990
2 10114  97.5814 283.5971 0008272 129.9700 230.2277 15.46601437674686
SEASAT 1
1 10967U 78064A   26109.79142387  .00000195  00000+0  92884-4 0  9996
2 10967 108.0076 211.7362 0002802 264.0416  96.0410 14.46194923512454
SL-14 R/B
1 11267U 79011B   26109.82769556  .00000446  00000+0  41543-4 0  9995
2 11267  82.5245  57.5264 0014381 281.5178  78.4427 14.91960892534916
